2023-007M               
1 55259U 23007M   23039.84535892  .00012346  00000+0  47732-3 0  9990
2 55259  97.3703 113.9616 0008478 196.6659 227.7467 15.26336812  3761
2023-007N               
1 55260U 23007N   23039.84620000  .00018448  00000+0  69227-3 0  9990
2 55260  97.3716 113.9938 0008350 215.0905 281.6085 15.27237198  3766
2023-007P               
1 55261U 23007P   23039.84545968  .00015147  00000+0  56945-3 0  9996
2 55261  97.3703 113.9929 0009140 217.7828 280.1154 15.27211031  3763
USA 342                 
1 55263U 23008A   23039.00208333  .00000067  00000+0  00000+0 0  9991
2 55263   0.0178 137.6237 0001969 151.0145  79.4098  1.00329539   234
NAVSTAR 82 (USA 343)    
1 55268U 23009A   23038.94549582  .00000051  00000+0  00000+0 0  9996
2 55268  55.1004 196.5873 0008176  98.0451 262.0090  2.00570472   681
STARLINK-5277           
1 55269U 23010A   23039.91667824 -.00015889  00000+0 -13046-3 0  9992
2 55269  70.0005  11.6178 0003418 261.9368 257.5755 15.69953318  1306
STARLINK-5301           
1 55270U 23010B   23039.91667824  .00051182  00000+0  42517-3 0  9993
2 55270  70.0005  11.6193 0003462 255.2754 262.4682 15.69904231  1303
STARLINK-5306           
1 55271U 23010C   23039.91667824  .00031218  00000+0  26032-3 0  9996
2 55271  70.0006  11.6180 0003357 266.3517 252.5477 15.69933802  1302
STARLINK-5310           
1 55272U 23010D   23039.91667824 -.00019321  00000+0 -15902-3 0  9994
2 55272  70.0005  11.6200 0003395 270.0226 247.0930 15.69963237  1304
STARLINK-5291           
1 55273U 23010E   23039.91667824 -.00007638  00000+0 -61747-4 0  9992
2 55273  70.0008  11.6165 0003350 264.0531 256.6477 15.69949380  1306
STARLINK-5236           
1 55274U 23010F   23039.91667824 -.00001242  00000+0 -85606-5 0  9999
2 55274  70.0008  11.6150 0003375 265.3756 255.9412 15.69934029  3713
STARLINK-5260           
1 55275U 23010G   23039.91667824 -.00017751  00000+0 -14598-3 0  9992
2 55275  70.0005  11.6147 0003340 260.1358 261.7591 15.69955650  1309
STARLINK-5261           
1 55276U 23010H   23039.91667824 -.00001670  00000+0 -12116-4 0  9991
2 55276  70.0005  11.6121 0003422 268.8361 254.8606 15.69935405  1308
STARLINK-5299           
1 55277U 23010J   23039.91667824 -.00015387  00000+0 -12631-3 0  9993
2 55277  70.0008  11.6139 0003237 270.8600 251.6360 15.69947862  1306
STARLINK-5289           
1 55278U 23010K   23039.91667824 -.00005987  00000+0 -48025-4 0  9996
2 55278  70.0008  11.6102 0003093 272.0322 253.4439 15.69941751  1300
STARLINK-5323           
1 55279U 23010L   23039.91667824 -.00014959  00000+0 -12274-3 0  9992
2 55279  70.0009  11.6131 0003300 268.7354 254.3555 15.69948026  1303
STARLINK-5331           
1 55280U 23010M   23039.91667824 -.00014219  00000+0 -11658-3 0  9998
2 55280  70.0009  11.6090 0003229 266.3036 259.7684 15.69945378  1309
STARLINK-5298           
1 55281U 23010N   23039.91667824  .00006163  00000+0  52966-4 0  9994
2 55281  70.0008  11.6118 0003306 261.6950 262.5924 15.69934795  1309
STARLINK-5330           
1 55282U 23010P   23039.91667824 -.00009734  00000+0 -79212-4 0  9997
2 55282  70.0009  11.6071 0003334 268.8109 259.0471 15.69943300  1305
STARLINK-5317           
1 55283U 23010Q   23039.91667824 -.00026454  00000+0 -21864-3 0  9995
2 55283  70.0008  11.6109 0003255 267.1943 257.6781 15.69956302  1301
STARLINK-5337           
1 55284U 23010R   23039.91667824 -.00012472  00000+0 -10202-3 0  9995
2 55284  70.0008  11.6056 0003399 267.0805 261.9688 15.69944803  1305
STARLINK-5332           
1 55285U 23010S   23039.91667824 -.00006341  00000+0 -50979-4 0  9990
2 55285  69.9981  11.4659 0003399 264.8897  22.3174 15.69934377  1300
STARLINK-5338           
1 55286U 23010T   23039.91667824 -.00013848  00000+0 -11346-3 0  9995
2 55286  70.0006  11.6057 0003272 271.2113 257.2308 15.69952282  1302
STARLINK-5341           
1 55287U 23010U   23039.91667824  .00004590  00000+0  39887-4 0  9999
2 55287  70.0009  11.6081 0003145 263.6235 263.6268 15.69944119  1308
STARLINK-5311           
1 55288U 23010V   23039.91667824  .00060694  00000+0  50338-3 0  9990
2 55288  70.0006  11.6003 0003429 262.1860 271.0388 15.69900334  1300
STARLINK-5320           
1 55289U 23010W   23039.91667824 -.00012163  00000+0 -99440-4 0  9999
2 55289  70.0005  11.6042 0003320 270.9619 259.2741 15.69947028  1304
STARLINK-5266           
1 55290U 23010X   23039.91667824 -.00007978  00000+0 -64592-4 0  9999
2 55290  70.0003  11.6020 0003510 273.4984 257.9305 15.69942264  1302
STARLINK-5327           
1 55291U 23010Y   23039.91667824 -.00024834  00000+0 -20510-3 0  9991
2 55291  70.0008  11.6032 0003431 272.5368 258.2911 15.69955323  1306
STARLINK-5325           
1 55292U 23010Z   23039.91667824 -.00002749  00000+0 -21084-4 0  9991
2 55292  70.0008  11.5997 0003311 262.9556 270.8519 15.69945092  1301
STARLINK-5287           
1 55293U 23010AA  23039.91667824 -.00030504  00000+0 -25252-3 0  9992
2 55293  70.0007  11.6012 0003342 273.3703 259.2494 15.69954257  1300
STARLINK-5286           
1 55294U 23010AB  23039.91667824  .00000738  00000+0  79057-5 0  9991
2 55294  70.0006  11.6080 0003361 258.7954 267.8738 15.69937283  1307
STARLINK-5293           
1 55295U 23010AC  23039.91667824 -.00008965  00000+0 -72814-4 0  9997
2 55295  70.0008  11.6184 0003267 260.7915 257.5375 15.69943594  1305
STARLINK-5285           
1 55296U 23010AD  23039.91667824 -.00025559  00000+0 -21116-3 0  9994
2 55296  70.0006  11.5964 0003385 269.9647 266.2231 15.69955324  1305
STARLINK-5284           
1 55297U 23010AE  23039.91667824 -.00041225  00000+0 -34208-3 0  9999
2 55297  70.0008  11.5991 0003336 269.8406 264.5536 15.69972084  1307
STARLINK-5272           
1 55298U 23010AF  23039.91667824 -.00008000  00000+0 -64767-4 0  9998
2 55298  70.0008  11.5959 0003298 263.2229 273.5637 15.69945107  1308
STARLINK-5270           
1 55299U 23010AG  23039.91667824 -.00004124  00000+0 -32516-4 0  9999
2 55299  70.0007  11.5983 0003422 266.6775 268.3231 15.69943168  1304
STARLINK-5308           
1 55300U 23010AH  23039.91667824 -.00002827  00000+0 -21730-4 0  9996
2 55300  70.0008  11.5952 0003433 263.4237 273.9503 15.69947975  1308
STARLINK-5321           
1 55302U 23010AK  23039.91667824  .00033742  00000+0  28129-3 0  9994
2 55302  70.0006  11.5942 0003265 264.1464 273.8325 15.69921749  3719
STARLINK-5322           
1 55303U 23010AL  23039.91667824 -.00010337  00000+0 -84235-4 0  9993
2 55303  70.0008  11.6047 0003345 266.1285 263.5145 15.69944672  1300
STARLINK-5318           
1 55304U 23010AM  23039.91667824  .00036048  00000+0  30040-3 0  9993
2 55304  70.0008  11.5936 0003582 254.0594 284.5330 15.69912845  1305
STARLINK-5316           
1 55305U 23010AN  23039.91667824  .00017871  00000+0  15001-3 0  9997
2 55305  70.0005  11.6157 0003384 259.1268 260.9792 15.69935105  1307
STARLINK-5295           
1 55306U 23010AP  23039.91667824  .00002312  00000+0  20973-4 0  9997
2 55306  70.0006  11.5924 0003368 263.5366 276.2231 15.69943311  1306
STARLINK-5288           
1 55307U 23010AQ  23039.91667824  .00017836  00000+0  14974-3 0  9998
2 55307  70.0008  11.5934 0003272 264.1296 275.0391 15.69931920  1300
STARLINK-5292           
1 55308U 23010AR  23039.91667824  .00030332  00000+0  25329-3 0  9991
2 55308  70.0006  11.5891 0003284 266.8966 275.2822 15.69907481  1303
STARLINK-5315           
1 55309U 23010AS  23039.91667824  .00003803  00000+0  33364-4 0  9994
2 55309  70.0007  11.5918 0003278 267.6527 272.7087 15.69936785  1304
STARLINK-5309           
1 55310U 23010AT  23039.91667824 -.00014628  00000+0 -11996-3 0  9991
2 55310  70.0005  11.5897 0003329 267.9992 273.5468 15.69950955  1303
STARLINK-5312           
1 55311U 23010AU  23039.91667824  .00003709  00000+0  32575-4 0  9995
2 55311  70.0008  11.5910 0003297 272.0798 268.8707 15.69942888  1307
STARLINK-5296           
1 55312U 23010AV  23039.91667824 -.00765146  00000+0 -34128-2 0  9992
2 55312  70.0000  10.4610 0003666 264.0203 156.6787 15.85777375  1304
STARLINK-5313           
1 55313U 23010AW  23039.91667824 -.00011224  00000+0 -91633-4 0  9990
2 55313  70.0007  11.5889 0003391 262.5264 280.2274 15.69942065  1304
STARLINK-5305           
1 55314U 23010AX  23039.91667824 -.00035339  00000+0 -29289-3 0  9991
2 55314  70.0004  11.5860 0003528 267.3483 277.1819 15.69961757  1308
STARLINK-4623           
1 55315U 23010AY  23039.91667824  .00022316  00000+0  18694-3 0  9999
2 55315  70.0008  11.6011 0003536 261.7926 270.2577 15.69914195  3717
STARLINK-5257           
1 55316U 23010AZ  23039.85082180  .00013804  00000+0  11637-3 0  9991
2 55316  70.0008  11.9738 0003386 270.3831  89.6977 15.69926512  4882
STARLINK-5265           
1 55317U 23010BA  23039.91667824 -.00061809  00000+0 -51499-3 0  9993
2 55317  70.0006  11.5872 0003453 273.6337 270.2924 15.69973131  1301
STARLINK-5180           
1 55318U 23010BB  23039.91667824 -.00008348  00000+0 -67666-4 0  9997
2 55318  70.0008  11.5856 0003295 268.5629 276.5588 15.69946550  3714
STARLINK-5196           
1 55319U 23010BC  23039.91667824 -.00022101  00000+0 -18225-3 0  9997
2 55319  70.0005  11.5852 0003347 267.4789 278.2333 15.69958816  1309
HAWK-6B                 
1 55324U 23011A   23039.86732326  .00036844  00000+0  24967-2 0  9994
2 55324  40.5219 194.6432 0004047 284.0769  76.3180 15.05758437  2240
ELECTRON KICK STAGE R/B 
1 55325U 23011B   23039.86741476  .00009295  00000+0  64412-3 0  9991
2 55325  40.5069 194.6276 0003722 281.5472  78.4959 15.05559349  2240
HAWK-6C                 
1 55326U 23011C   23039.86492937  .00001310  00000+0  10000-3 0  9991
2 55326  40.4908 194.5852 0003176 319.0853  40.9461 15.05761775  2244
HAWK-6A                 
1 55327U 23011D   23039.86480139  .00003675  00000+0  26041-3 0  9991
2 55327  40.5051 194.6032 0003743 283.2162  76.8223 15.05748673  2247
